OBJECT_NAME,OBJECT_ID,EPOCH,MEAN_MOTION,ECCENTRICITY,INCLINATION,RA_OF_ASC_NODE,ARG_OF_PERICENTER,MEAN_ANOMALY,EPHEMERIS_TYPE,CLASSIFICATION_TYPE,NORAD_CAT_ID,ELEMENT_SET_NO,REV_AT_EPOCH,BSTAR,MEAN_MOTION_DOT,MEAN_MOTION_DDOT
SL-16 R/B,1994-077B,2026-06-14T08:45:22.268448,14.15571713,.00028075,70.9807,149.1001,329.8987,30.1974,0,U,23405,999,62991,-.7475891E-5,-.63E-6,0
ARIANE 40+ R/B,1995-021B,2026-06-14T11:21:38.682432,14.39831900,.0006262,98.4411,235.5874,202.0103,168.6005,0,U,23561,999,63317,.8416669E-4,.221E-5,0
SL-16 R/B,1995-058B,2026-06-14T12:25:41.001888,14.15506873,.00136191,71.0217,336.9630,324.1444,35.8764,0,U,23705,999,58155,.14717048E-3,.24E-5,0
SL-16 R/B,1996-051B,2026-06-14T13:15:50.911776,14.12445004,.00152425,70.7639,330.2245,340.8311,19.2233,0,U,24298,999,53532,.82941827E-4,.104E-5,0
ORBVIEW 2 (SEASTAR),1997-037A,2026-06-14T10:35:11.252544,14.35552079,.00031278,98.8684,332.3841,121.6002,238.5488,0,U,24883,999,52235,.77798153E-4,.177E-5,0
SL-16 R/B,1998-043G,2026-06-14T11:40:13.400544,14.26068170,.00109335,98.8363,119.6222,93.3523,266.8908,0,U,25400,999,45278,.2834513E-4,.22E-6,0
SL-16 R/B,1998-045B,2026-06-14T13:14:41.612064,14.16204152,.00094965,71.0120,337.8721,244.8131,115.2008,0,U,25407,999,44081,-.91995141E-4,-.23E-5,0
ISS (ZARYA),1998-067A,2026-06-14T11:31:37.334208,15.49225904,.00049254,51.6335,313.4905,185.2578,174.8360,0,U,25544,999,57133,.15997538E-3,.8443E-4,0
CZ-4B R/B,1999-025C,2026-06-14T14:36:55.191168,14.18283012,.00381645,98.6484,207.5123,66.8741,48.4125,0,U,25732,999,40190,.43875141E-4,.48E-6,0
OKEAN-O,1999-039A,2026-06-14T10:35:27.316032,14.80464084,.00016925,97.9318,224.2706,74.1255,286.0144,0,U,25860,999,44870,.74061975E-4,.514E-5,0
SL-16 R/B,1999-039B,2026-06-14T03:04:18.837984,14.81842502,.00136197,97.9839,223.9997,307.7856,52.2122,0,U,25861,999,45114,.62691444E-4,.442E-5,0
DELTA 2 R/B,1999-041E,2026-06-14T13:21:26.281152,14.12012204,.05008571,51.7658,274.3052,274.2393,80.1479,0,U,25876,999,37671,.15448724E-3,.725E-5,0
HELIOS 1B,1999-064A,2026-06-14T11:43:54.935328,14.88000137,.00024819,98.1618,70.5505,94.8328,265.3171,0,U,25977,999,69965,.14379405E-3,.1261E-4,0
TERRA,1999-068A,2026-06-14T11:58:35.716800,14.61101134,.00013699,97.9457,215.1518,199.3330,302.4932,0,U,25994,999,40921,.78741342E-4,.343E-5,0
SL-16 R/B,2000-006B,2026-06-14T14:13:04.512576,14.15834368,.00154013,71.0023,254.0810,26.9647,333.2273,0,U,26070,999,36227,-.67565679E-4,-.181E-5,0
TITAN 4B R/B,2000-047B,2026-06-14T14:38:01.346784,15.10184034,.00456516,67.9877,127.8279,289.8517,69.7715,0,U,26474,999,40754,.17848663E-3,.2853E-4,0
ENVISAT,2002-009A,2026-06-14T11:27:41.458752,14.39064231,.0001335,98.3834,116.8564,89.1662,21.6868,0,U,27386,999,27309,.34092007E-4,.62E-6,0
IDEFIX & ARIANE 42P R/B,2002-021B,2026-06-14T13:01:23.583648,14.31080970,.00105723,98.5943,103.0544,262.5898,97.4083,0,U,27422,999,25787,.80841979E-4,.169E-5,0
AQUA,2002-022A,2026-06-14T14:09:54.506016,14.62154575,.00012042,98.4276,134.8211,53.6401,5.5208,0,U,27424,999,28289,.14580251E-3,.684E-5,0
CZ-4B R/B,2002-024C,2026-06-14T09:37:55.894368,14.14563887,.00511678,98.8701,218.2397,107.9712,263.8444,0,U,27432,999,24291,.44254549E-4,.42E-6,0
MIDORI II (ADEOS-II),2002-056A,2026-06-14T11:28:19.523136,14.29348283,.00022081,98.7878,124.7147,80.4678,279.6753,0,U,27597,999,22412,.10051602E-3,.211E-5,0
H-2A R/B,2002-056E,2026-06-14T15:51:51.010848,14.33821023,.00690746,98.3311,122.4276,232.1826,301.6087,0,U,27601,999,22800,.67086926E-4,.149E-5,0
CZ-4B R/B,2003-049C,2026-06-14T13:11:12.467904,14.55098589,.00470323,98.6896,164.2909,296.8488,62.7903,0,U,28059,999,20068,.69672506E-4,.253E-5,0
CZ-2C R/B,2004-012C,2026-06-14T05:52:03.144576,15.78471137,.0009029,97.7091,240.5659,296.3814,63.6524,0,U,28222,999,21943,.59498679E-3,.103879E-2,0
SL-16 R/B,2004-021B,2026-06-14T07:59:14.171424,14.14609564,.00073766,71.0012,29.6803,258.1102,101.9194,0,U,28353,999,13650,-.12037516E-3,-.279E-5,0
CZ-4B R/B,2004-035C,2026-06-14T13:59:28.898304,15.30593545,.00301867,97.3365,198.6856,347.5363,12.5128,0,U,28415,999,19472,.24966702E-3,.7409E-4,0
CZ-2C R/B,2004-046B,2026-06-14T14:19:56.418528,14.27026000,.01383638,98.1947,74.5397,227.9772,130.9565,0,U,28480,999,12232,.39778109E-4,.65E-6,0
ARIANE 5 R/B,2004-049H,2026-06-14T10:27:36.821376,14.85445757,.00846867,98.2719,337.5827,38.2674,322.4509,0,U,28499,999,16015,.71038589E-4,.588E-5,0
CZ-2D R/B,2005-024B,2026-06-14T12:59:35.710656,15.69293255,.00038501,97.3481,184.8380,59.0467,301.1173,0,U,28738,999,15492,.4441782E-3,.51895E-3,0
ALOS (DAICHI),2006-002A,2026-06-14T15:21:49.143168,14.70045584,.00015516,98.1323,121.2155,58.5186,301.6172,0,U,28931,999,8772,.16213451E-3,.923E-5,0
